{"spkid": "20613403", "covariance": {"epoch": "2458410.5", "labels": ["e", "q", "tp", "node", "peri", "i"], "elements": [{"label": "e", "name": "e", "sigma": 6.10786119130235e-08, "title": "eccentricity", "value": ".1793791031457396", "units": null}, {"label": "q", "title": "perihelion distance", "value": ".7869138247552853", "units": "au", "name": "q", "sigma": 5.84894149197979e-08}, {"name": "tp", "sigma": 2.29261276967463e-05, "units": "TDB", "title": "time of perihelion passage", "value": "2458534.967489274053", "label": "tp"}, {"value": "183.8259826508996", "title": "longitude of the ascending node", "units": "deg", "name": "om", "sigma": 1.66817430657534e-05, "label": "node"}, {"sigma": 1.79891249401223e-05, "name": "w", "units": "deg", "title": "argument of perihelion", "value": "242.8336351278924", "label": "peri"}, {"label": "i", "name": "i", "sigma": 5.93323676899933e-06, "units": "deg", "title": "inclination", "value": "10.0621339720851"}], "data": [["3.730596833221733E-15", "-3.572187102953571E-15", "7.111709731890595E-13", "2.598676075845352E-13", "1.392368559598533E-13", "2.467610628838793E-13"], ["-3.572187102953571E-15", "3.421011657660278E-15", "-6.7421060627492E-13", "-2.448348873490386E-13", "-1.316497629990288E-13", "-2.361155461532372E-13"], ["7.111709731890595E-13", "-6.7421060627492E-13", "5.256073311675163E-10", "1.650819718317234E-10", "2.181677794957806E-10", "4.353874342085279E-11"], ["2.598676075845352E-13", "-2.448348873490386E-13", "1.650819718317234E-10", "2.782805517118103E-10", "-1.570588125842886E-10", "5.919884111590934E-11"], ["1.392368559598533E-13", "-1.316497629990288E-13", "2.181677794957806E-10", "-1.570588125842886E-10", "3.23608616111331E-10", "-3.542324263633401E-11"], ["2.467610628838793E-13", "-2.361155461532372E-13", "4.353874342085279E-11", "5.919884111590934E-11", "-3.542324263633401E-11", "3.520329855700558E-11"]]}, "elements": [{"units": null, "title": "eccentricity", "value": ".1794678157881811", "sigma": "6.1289E-8", "name": "e", "label": "e"}, {"label": "a", "title": "semi-major axis", "value": ".95857305865471", "units": "au", "sigma": "1.3681E-9", "name": "a"}, {"units": "au", "value": ".7865400455445533", "title": "perihelion distance", "name": "q", "sigma": "5.7973E-8", "label": "q"}, {"units": "deg", "title": "inclination; angle with respect to x-y ecliptic plane", "value": "10.06524829796194", "name": "i", "sigma": "5.935E-6", "label": "i"}, {"units": "deg", "title": "longitude of the ascending node", "value": "183.6726579534454", "name": "om", "sigma": "1.6738E-5", "label": "node"}, {"label": "peri", "name": "w", "sigma": "1.7963E-5", "units": "deg", "title": "argument of perihelion", "value": "242.9258704989098"}, {"label": "M", "sigma": "2.7594E-5", "name": "ma", "units": "deg", "value": "278.7651827223843", "title": "mean anomaly"}, {"sigma": "2.6408E-5", "name": "tp", "units": "TDB", "title": "time of perihelion passage", "value": "2461277.852786331629", "label": "tp"}, {"sigma": "7.3387E-7", "name": "per", "title": "sidereal orbital period", "value": "342.7964019937495", "units": "d", "label": "period"}, {"label": "n", "title": "mean motion", "value": "1.050186051855247", "units": "deg/d", "name": "n", "sigma": "2.2483E-9"}, {"label": "Q", "sigma": "1.6136E-9", "name": "ad", "units": "au", "title": "aphelion distance", "value": "1.130606071764867"}], "epoch": "2461200.5"}